{
  "type": "FeatureCollection",
  "features": [
    {
      "type": "Feature",
      "properties": {
        "id": "881862aebdfffff"
      },
      "geometry": {
        "type": "Polygon",
        "coordinates": [
          [
            [
              48.67254357310919,
              -1.9794493054980444
            ],
            [
              48.67112576262621,
              -1.9859061601393715
            ],
            [
              48.66647861049692,
              -1.9869512557665172
            ],
            [
              48.663249536390325,
              -1.9815402550049561
            ],
            [
              48.66466737089614,
              -1.9750843577921058
            ],
            [
              48.66931425547017,
              -1.9740385040053967
            ],
            [
              48.67254357310919,
              -1.9794493054980444
            ]
          ]
        ]
      }
    },
    {
      "type": "Feature",
      "properties": {
        "id": "881862aeb5fffff"
      },
      "geometry": {
        "type": "Polygon",
        "coordinates": [
          [
            [
              48.66647861049692,
              -1.9869512557665172
            ],
            [
              48.665060110269245,
              -1.993407708251952
            ],
            [
              48.660412512021466,
              -1.9944522027025025
            ],
            [
              48.65718368150606,
              -1.9890410029591685
            ],
            [
              48.65860220566281,
              -1.982585507654019
            ],
            [
              48.663249536390325,
              -1.9815402550049561
            ],
            [
              48.66647861049692,
              -1.9869512557665172
            ]
          ]
        ]
      }
    }
  ]
}